[{"OBJECT_NAME":"STARLINK-4659","OBJECT_ID":"2022-177X","EPOCH":"2026-03-09T22:00:01.999584","MEAN_MOTION":15.19541895,"ECCENTRICITY":0.00015968,"INCLINATION":42.9998,"RA_OF_ASC_NODE":131.1037,"ARG_OF_PERICENTER":257.6821,"MEAN_ANOMALY":10.3594,"EPHEMERIS_TYPE":0,"CLASSIFICATION_TYPE":"U","NORAD_CAT_ID":54841,"ELEMENT_SET_NO":999,"REV_AT_EPOCH":577,"BSTAR":0.049083509,"MEAN_MOTION_DOT":0.01155812,"MEAN_MOTION_DDOT":0},{"OBJECT_NAME":"OBJECT L","OBJECT_ID":"2024-024L","EPOCH":"2026-03-09T22:36:05.522976","MEAN_MOTION":15.29373491,"ECCENTRICITY":0.00073185,"INCLINATION":97.3169,"RA_OF_ASC_NODE":137.7038,"ARG_OF_PERICENTER":167.6369,"MEAN_ANOMALY":192.5052,"EPHEMERIS_TYPE":0,"CLASSIFICATION_TYPE":"U","NORAD_CAT_ID":58927,"ELEMENT_SET_NO":999,"REV_AT_EPOCH":9318,"BSTAR":0.00043092344,"MEAN_MOTION_DOT":0.00012217,"MEAN_MOTION_DDOT":0}]
